[{"OBJECT_NAME":"STARLINK-2190","OBJECT_ID":"2021-041M","EPOCH":"2026-03-09T09:31:30.960768","MEAN_MOTION":15.30205507,"ECCENTRICITY":0.00012718,"INCLINATION":53.1594,"RA_OF_ASC_NODE":128.0542,"ARG_OF_PERICENTER":88.6224,"MEAN_ANOMALY":271.4923,"EPHEMERIS_TYPE":0,"CLASSIFICATION_TYPE":"U","NORAD_CAT_ID":48564,"ELEMENT_SET_NO":999,"REV_AT_EPOCH":26523,"BSTAR":8.3435407e-5,"MEAN_MOTION_DOT":2.113e-5,"MEAN_MOTION_DDOT":0},{"OBJECT_NAME":"VSP ROSE","OBJECT_ID":"2024-043AC","EPOCH":"2026-03-09T21:48:06.922944","MEAN_MOTION":15.27746075,"ECCENTRICITY":0.00099339,"INCLINATION":97.5443,"RA_OF_ASC_NODE":203.927,"ARG_OF_PERICENTER":232.2702,"MEAN_ANOMALY":127.7637,"EPHEMERIS_TYPE":0,"CLASSIFICATION_TYPE":"U","NORAD_CAT_ID":59124,"ELEMENT_SET_NO":999,"REV_AT_EPOCH":11182,"BSTAR":0.00025731354,"MEAN_MOTION_DOT":6.907e-5,"MEAN_MOTION_DDOT":0}]
